format  = 'OEF2.0'       ! file format
rectype = 'ML'           ! record type (1L/ML)
refsys  = ECLM J2000     ! default reference system
END_OF_HEADER
34713
! Equinoctial elements: a, e*sin(LP), e*cos(LP), tan(i/2)*sin(LN), tan(i/2)*cos(LN), mean long.
 EQU   2.8041167798722424E+00  -0.018233692083002   0.172196556501974   -0.065799001000219    0.023094080542415  63.7347677138408
 MJD     61000.000000000 TDT
 MAG  13.857  0.150
! Non-grav parameters: model used, actual number in use, dimension
 LSP   0  0    6
! RMS    1.01992E-08   3.69389E-08   3.52008E-08   3.26507E-08   3.22735E-08   4.81561E-06
! EIG   5.96124E-09   3.21392E-08   3.26056E-08   3.32637E-08   3.44141E-08   8.63536E-08
! WEA   0.08586  -0.17594   0.14432  -0.01313  -0.02606  -0.96953
 COV   1.040244076497057E-16 -9.173987777020965E-18  3.417007022715305E-17
 COV   2.220469271762979E-18 -1.938437387212365E-18 -3.691932932273392E-14
 COV   1.364483407197695E-15 -1.369604232953900E-16  2.749147715685653E-17
 COV   1.927719972771417E-17  6.207929461996733E-14  1.239095273920104E-15
 COV   2.162954877693647E-19 -1.192744138660550E-17 -5.141405598608749E-14
 COV   1.066065333052251E-15 -3.521914484918561E-18  4.690468318740523E-15
 COV   1.041577764983974E-15  9.571273805012451E-15  2.319005788365984E-11
 NOR   2.759153433133930E+16 -2.064160770503710E+15  1.175930462701196E+15
 NOR  -2.356738926875874E+14 -3.780355945761020E+14  5.226315738190982E+13
 NOR   9.891118244328991E+14 -8.840448086869769E+13  5.957138010337680E+12
 NOR   3.332779334764646E+13 -6.145002331112231E+12  9.390723280303986E+14
 NOR  -1.893894749395357E+13 -2.412231184434301E+13  4.204555389592186E+12
 NOR   9.411550320600560E+14  8.177073319247856E+12 -6.268715684455981E+11
 NOR   9.690452299197236E+14 -1.146153410547832E+12  1.526982753682962E+11
